satname,norad_id,inclination_deg,eccentricity,mean_motion_rev_per_day,perigee_km,apogee_km,l1,l2
STARLINK-1008,44714,53.1567,0.0001257,15.31028451,471.8814239719086,473.6037350982033,1 44714U 19074B   26055.52008345  .00001328  00000+0  55627-4 0  9998,2 44714  53.1567 240.0088 0001257  90.9450 269.1696 15.31028451346858
STARLINK-1012,44718,53.1606,0.0001082,15.30184541,474.5196899071934,476.0027652836443,1 44718U 19074F   26055.88517075  .00000042  00000+0  13555-4 0  9992,2 44718  53.1606 238.2817 0001082 107.8918 252.2201 15.30184541346901
STARLINK-1017,44723,53.0512,0.0003115,15.22791761,495.28262505380553,499.5660997825926,1 44723U 19074L   26055.88183006  .00043636  00000+0  18462-2 0  9997,2 44723  53.0512 230.4882 0003115 134.5634 225.5617 15.22791761347015
STARLINK-1019,44724,53.0424,0.0004941,15.77981092,332.843960758275,339.47903053167283,1 44724U 19074M   26056.78212104  .00105445  00000+0  60522-3 0  9992,2 44724  53.0424 196.4359 0004941 160.4067 199.7144 15.77981092347569
STARLINK-1020,44725,53.1403,0.0001467,15.26024527,486.7034777472318,488.71791746170857,1 44725U 19074N   26056.91671296  .01061623  00000+0  37769-1 0  9994,2 44725  53.1403 258.4894 0001467  73.0677 335.5776 15.26024527  5733
STARLINK-1031,44736,53.0404,0.0002615,15.85578626,312.9457862771869,316.4461379163631,1 44736U 19074Z   26056.91671296  .00145965  00000+0  58523-3 0  9990,2 44736  53.0404 179.8350 0002615 286.4577 344.2542 15.85578626  5987
STARLINK-1036,44741,53.0522,0.0004417,15.5296584,405.07466629302417,411.0696034427674,1 44741U 19074AE  26055.88204969  .00104163  00000+0  16289-2 0  9997,2 44741  53.0522 250.4106 0004417 170.0478 190.0619 15.52965840346734
STARLINK-1039,44744,53.0443,0.0006098,15.20380398,500.4951726170948,508.88947125813047,1 44744U 19074AH  26055.99905313  .00039884  00000+0  18126-2 0  9992,2 44744  53.0443 273.3724 0006098 134.0723 226.0775 15.20380398346422
STARLINK-1042,44747,53.0433,0.0002224,15.49124169,417.775163165039,420.7986573203143,1 44747U 19074AL  26056.52710967  .00021235  00000+0  39130-3 0  9994,2 44747  53.0433 153.1170 0002224 111.4251 248.6994 15.49124169348187
STARLINK-1043,44748,53.0509,0.0002768,15.52712527,406.9315660580587,410.68882002412556,1 44748U 19074AM  26055.91706553  .00025595  00000+0  41367-3 0  9991,2 44748  53.0509 256.0777 0002768  90.6486 269.4840 15.52712527346666
STARLINK-1046,44751,53.0539,0.0007537,15.42498195,433.6011853766604,443.8769443568408,1 44751U 19074AQ  26055.59133876  .00019628  00000+0  45384-3 0  9994,2 44751  53.0539 273.0399 0007537 131.1214 229.0442 15.42498195346392
STARLINK-1047,44752,53.0678,0.0003716,15.32244919,466.57166221152147,471.6605407165298,1 44752U 19074AR  26056.43068288  .00010747  00000+0  35158-3 0  9994,2 44752  53.0678 203.2614 0003716 160.7856 199.3285 15.32244919347462
STARLINK-1048,44753,53.0526,0.0004311,15.50780748,411.5169913405525,417.3735557768141,1 44753U 19074AS  26056.48015499  .00027660  00000+0  47806-3 0  9991,2 44753  53.0526 227.6122 0004311 144.2040 215.9258 15.50780748347104
STARLINK-1053,44758,53.0295,0.0005433,15.85740289,310.60510488009913,317.8770428951848,1 44758U 19074AX  26056.91671296  .00158181  00000+0  62770-3 0  9997,2 44758  53.0295 143.3119 0005433   5.7148   4.5102 15.85740289  5989
STARLINK-1063,44768,53.1575,5.16e-05,15.29321041,477.4869709867189,478.1945078894287,1 44768U 19074BH  26056.73436420 -.00521107  00000+0 -19366-1 0  9991,2 44768  53.1575 274.9279 0000516  66.9184 293.1870 15.29321041346486
STARLINK-1067,44771,53.0547,8.36e-05,15.54526156,402.96343787147543,404.0973326582907,1 44771U 19074BL  26055.97673972  .00093751  00000+0  13883-2 0  9991,2 44771  53.0547 265.7249 0000836 182.8509 177.2496 15.54526156346531
STARLINK-1068,44772,53.0503,0.0004076,15.60447118,383.6073972709746,389.1218189819192,1 44772U 19074BM  26056.78595853  .00125831  00000+0  14851-2 0  9994,2 44772  53.0503 238.0485 0004076 174.2896 185.8164 15.60447118346986
STARLINK-1112,44925,53.037,0.0001968,15.99884077,273.4307612825087,276.0493336884001,1 44925U 20001M   26056.91671296  .00395101  77508-4  76302-3 0  9998,2 44925  53.0370 302.1698 0001968 195.5455 243.1412 15.99884077  5696
STARLINK-1114,44927,53.0509,0.0008484,15.47962088,416.91862421844235,428.4582648327123,1 44927U 20001P   26056.80778811  .00077653  00000+0  14556-2 0  9998,2 44927  53.0509  26.3004 0008484  70.4260 289.7662 15.47962088338259
STARLINK-1123,44930,53.0913,0.0001998,15.15112569,519.2584563322498,522.015206355255,1 44930U 20001S   26056.91671296  .01568055  00000+0  75067-1 0  9998,2 44930  53.0913  39.3321 0001998  69.3733  23.2658 15.15112569  5784
STARLINK-1094,44941,53.1617,0.0001348,15.30190868,474.3185005263722,476.1661715953742,1 44941U 20001AD  26056.20835441  .00000271  00000+0  21282-4 0  9999,2 44941  53.1617  17.5356 0001348  95.7972 264.3182 15.30190868338325
STARLINK-1122,44949,53.162,0.0001569,15.30196064,474.151528847432,476.3021144146587,1 44949U 20001AM  26056.16938398 -.00000041  00000+0  10759-4 0  9990,2 44949  53.1620  17.7642 0001569  87.0133 273.1047 15.30196064338316
STARLINK-1080,44961,53.0535,0.0008838,15.44915331,425.60839729826785,437.6453359088764,1 44961U 20001AZ  26056.20441235  .00086201  00000+0  17913-2 0  9996,2 44961  53.0535 347.7452 0008838  73.1539 287.0435 15.44915331338744
STARLINK-1090,44968,53.0555,0.0001651,15.06402049,546.0619040453976,548.3486520656124,1 44968U 20001BG  26056.22066868  .00003897  00000+0  28038-3 0  9991,2 44968  53.0555   2.5948 0001651  92.6213 267.4965 15.06402049338532
STARLINK-1132,45044,53.1543,0.0005497,15.42096823,436.17397631851964,443.6697502328052,1 45044U 20006A   26056.73870796  .00058729  00000+0  13510-2 0  9993,2 45044  53.1543 310.5506 0005497 140.5301 219.6107 15.42096823335084
STARLINK-1131,45047,53.1597,0.0001159,15.30197656,474.4277638737458,476.01637250575186,1 45047U 20006D   26056.19087626  .00012097  00000+0  41993-3 0  9993,2 45047  53.1597 339.0364 0001159  73.7191 286.3937 15.30197656334634
STARLINK-1134,45048,53.0345,0.0010174,15.42189422,432.712523432564,446.5853542609293,1 45048U 20006E   26056.64278002  .00015301  00000+0  35949-3 0  9999,2 45048  53.0345 295.5249 0010174 131.2432 228.9451 15.42189422335288
STARLINK-1156,45054,53.1582,0.0001565,15.30197422,474.1502160699274,476.2953176769579,1 45054U 20006L   26056.80502945  .00001136  00000+0  50485-4 0  9994,2 45054  53.1582 336.1978 0001565 105.4913 254.6261 15.30197422334720
STARLINK-1159,45057,53.0474,0.0005865,15.78175296,331.6730480279739,339.5482740343641,1 45057U 20006P   26056.04217901  .00099022  00000+0  56393-3 0  9992,2 45057  53.0474 298.2289 0005865 104.7955 255.3715 15.78175296335191
STARLINK-1166,45060,53.0543,0.0006196,15.43702522,430.9715851033043,439.41466379352187,1 45060U 20006S   26056.79882543  .00032996  00000+0  72552-3 0  9990,2 45060  53.0543 329.2578 0006196 101.7540 258.4161 15.43702522334821
STARLINK-1169,45061,53.1599,0.0001294,15.301899,474.3583987045695,476.1320540247534,1 45061U 20006T   26056.77237521  .00000848  00000+0  40780-4 0  9999,2 45061  53.1599 336.3509 0001294  81.5035 278.6112 15.30189900334729
STARLINK-1171,45062,53.0468,0.0001789,15.55065098,400.7504441573519,403.1763640819463,1 45062U 20006U   26056.12845193  .00097083  00000+0  14087-2 0  9995,2 45062  53.0468 310.3595 0001789 352.2048   7.8934 15.55065098335039
STARLINK-1133,45064,53.1589,0.0001359,15.30192872,474.3049789865163,476.1677258637055,1 45064U 20006W   26055.92906497  .00002044  00000+0  81146-4 0  9994,2 45064  53.1589 317.0736 0001359  80.8559 279.2595 15.30192872334920
STARLINK-1167,45071,53.1605,0.000138,15.29355473,476.79172439786817,478.68394585236274,1 45071U 20006AD  26055.95001805 -.00000566  00000+0 -72824-5 0  9997,2 45071  53.1605 316.9508 0001380  89.2712 270.8447 15.29355473334929
STARLINK-1168,45072,53.1589,0.0001598,15.29359664,476.6297432669953,478.82087686129216,1 45072U 20006AE  26056.09051319  .00000472  00000+0  28710-4 0  9997,2 45072  53.1589 316.3607 0001598  89.2366 270.8817 15.29359664334940
STARLINK-1172,45074,53.1605,0.0002071,15.30173006,473.87632391658553,476.7150157284259,1 45074U 20006AG  26056.10185368 -.00003523  00000+0 -10693-3 0  9995,2 45074  53.1605 316.2954 0002071  87.4739 272.6499 15.30173006334948
STARLINK-1153,45080,53.1597,0.0001085,15.29358644,476.9844970001541,478.4722197829251,1 45080U 20006AN  26056.13047470  .00000218  00000+0  19866-4 0  9994,2 45080  53.1597 316.0299 0001085 100.2321 259.8802 15.29358644334957
STARLINK-1151,45081,53.0521,0.0011959,15.5657936,389.46244440841383,405.6685696647437,1 45081U 20006AP  26056.09640610  .00056616  00000+0  78141-3 0  9998,2 45081  53.0521 301.3281 0011959 105.2035 255.0299 15.56579360335151
STARLINK-1185,45087,53.1562,0.0002713,15.29374456,475.82112026912546,479.54108717220424,1 45087U 20006AV  26056.82278989  .00030485  00000+0  10638-2 0  9993,2 45087  53.1562 297.4914 0002713 125.2357 234.8898 15.29374456335270
STARLINK-1183,45088,53.1593,0.0001646,15.30057834,474.51145271105906,476.7677159626228,1 45088U 20006AW  26056.27772670  .00076750  00000+0  25881-2 0  9990,2 45088  53.1593 300.2339 0001646  73.0875 287.0306 15.30057834335182
STARLINK-1152,45096,53.0385,0.0006935,15.36671687,451.22018097353066,460.6990729951567,1 45096U 20006BE  26055.98771201  .00048848  00000+0  13453-2 0  9994,2 45096  53.0385 266.3154 0006935 147.9907 212.1518 15.36671687335637
STARLINK-1184,45098,53.0567,0.0006692,15.09857633,532.0072739868583,541.2620043487204,1 45098U 20006BG  26056.68579247  .00014343  00000+0  89199-3 0  9994,2 45098  53.0567 299.6064 0006692 102.3613 257.8127 15.09857633335223
STARLINK-1193,45100,53.053,0.0005802,15.49904592,413.06237413612143,420.9474568148389,1 45100U 20006BJ  26055.97503170  .00090366  00000+0  15797-2 0  9992,2 45100  53.0530 291.7379 0005802 162.7563 197.3643 15.49904592335272
